GLOBALSTAR M067 [+]     
1 32263U 07048A   23349.89486479 -.00000065  00000+0  23998-3 0  9996
2 32263  51.9703 203.1554 0000414 108.6253 356.4440 12.40635769741547
GLOBALSTAR M068 [-]     
1 32266U 07048D   23349.85601606 -.00000099  00000+0  28246-4 0  9995
2 32266  51.9856 176.7296 0001611  58.6067  46.7748 12.62774680748158
GLOBALSTAR M074 [+]     
1 37189U 10054B   23350.38848139 -.00000095  00000+0  46962-4 0  9990
2 37189  52.0040   9.8253 0000251  84.4510  20.3265 12.62263250607750
GLOBALSTAR M076 [+]     
1 37190U 10054C   23350.25129212 -.00000091  00000+0  70251-4 0  9996
2 37190  52.0052  10.3663 0000435 206.4696 233.1033 12.62264355607453
GLOBALSTAR M077 [+]     
1 37191U 10054D   23350.24330330 -.00000089  00000+0  81228-4 0  9994
2 37191  52.0089 327.0885 0000376  42.3651  60.4475 12.62267326607823
